2022-058A               
1 52785U 22058A   22180.77418122  .00001431  00000+0  18627-3 0  9994
2 52785  49.9966 132.2342 0012304  30.7323 329.4333 14.86435584  4118
2022-058B               
1 52786U 22058B   22181.10821991  .00000822  00000+0  11802-3 0  9996
2 52786  50.0020 130.6690 0012256  34.5692 325.6044 14.86532880  4145
2022-058C               
1 52787U 22058C   22181.17388588  .00001408  00000+0  18292-3 0  9995
2 52787  49.9916 130.3216 0012782  35.2572 324.9196 14.86630741  4153
2022-058D               
1 52788U 22058D   22181.17110031  .00001417  00000+0  18326-3 0  9990
2 52788  50.0064 130.3414 0012961  37.9778 322.2065 14.86780084  4159
2022-058E               
1 52789U 22058E   22181.16879698  .00000785  00000+0  11296-3 0  9997
2 52789  49.9901 130.2843 0014176  38.3794 321.8153 14.86883422  4158
2022-058F               
1 52790U 22058F   22181.16377469  .00001402  00000+0  18003-3 0  9998
2 52790  50.0078 130.2975 0014275  43.2340 316.9711 14.87161685  4152
2022-058G               
1 52791U 22058G   22181.16100020  .00001444  00000+0  18391-3 0  9992
2 52791  49.9917 130.2380 0015274  44.2020 316.0128 14.87316248  4158
2022-058H               
1 52792U 22058H   22180.82124850  .00000920  00000+0  12614-3 0  9992
2 52792  49.9962 131.7923 0016256  44.4634 315.7615 14.87508121  4107
2022-058J               
1 52793U 22058J   22181.22196155  .00001444  00000+0  18258-3 0  9997
2 52793  50.0017 129.9119 0016396  47.9895 312.2409 14.87640003  4198
CZ-2C R/B               
1 52794U 22058K   22180.59332922  .00001222  00000+0  81867-4 0  9992
2 52794  50.1774 128.9080 0103970 148.4345 212.2886 15.10840221  4120
PROGRESS-MS 20          
1 52795U 22059A   22180.53207176  .00008787  00000+0  16309-3 0  9991
2 52795  51.6436 275.4481 0004461 311.4228 231.1241 15.49763021347097
SHENZHOU 14             
1 52797U 22060A   22180.64132396  .00011612  00000+0  14012-3 0  9998
2 52797  41.4702 143.1757 0003226 348.0105 179.0918 15.60615494 66718
NILESAT 301             
1 52817U 22061A   22180.89322243 -.00000074  00000+0  00000+0 0  9990
2 52817   0.0240 344.0314 0000748 237.3819   7.8601  1.00273582   226
FALCON 9 R/B            
1 52818U 22061B   22180.57902177  .00278770  00000+0  35335+0 0  9994
2 52818  18.7553  39.4456 7692725 189.7012 133.8461  1.75849338   365
STARLINK-4091           
1 52830U 22062A   22181.25001157 -.00750677  00000+0 -47005-2 0  9996
2 52830  53.2175 341.9628 0000944 336.7270 350.1982 15.78114115  2511
STARLINK-4089           
1 52831U 22062B   22181.25001157 -.00749801  00000+0 -47014-2 0  9994
2 52831  53.2175 341.9667 0001022 319.3333   6.1560 15.78081165  2518
STARLINK-4083           
1 52832U 22062C   22181.25001157 -.00748889  00000+0 -46933-2 0  9999
2 52832  53.2175 341.9650 0000956 305.1243  20.8554 15.78090497  2502
STARLINK-4086           
1 52833U 22062D   22181.25001157 -.00750524  00000+0 -47020-2 0  9997
2 52833  53.2175 341.9647 0000815 336.5524 349.8958 15.78103111  2019
STARLINK-4108           
1 52834U 22062E   22181.25001157 -.00749547  00000+0 -46906-2 0  9993
2 52834  53.2175 341.9621 0000921 320.8689   6.5324 15.78124640  2012
STARLINK-4080           
1 52835U 22062F   22181.25001157 -.00749339  00000+0 -46865-2 0  9997
2 52835  53.2175 341.9620 0001163 305.7238  22.1530 15.78135450  2017
STARLINK-4043           
1 52836U 22062G   22181.25001157 -.00750533  00000+0 -46927-2 0  9995
2 52836  53.2175 341.9602 0000923 329.9784 358.3824 15.78146369  2016
STARLINK-4036           
1 52837U 22062H   22181.25001157 -.00750297  00000+0 -46841-2 0  9998
2 52837  53.2175 341.9580 0000934 325.0757   4.7109 15.78179280  2017
STARLINK-4092           
1 52838U 22062J   22181.25001157 -.00750777  00000+0 -46919-2 0  9998
2 52838  53.2175 341.9594 0000924 332.0118 356.8194 15.78157948  2507
STARLINK-4048           
1 52839U 22062K   22180.91667824 -.00744681  00000+0 -45257-2 0  9991
2 52839  53.2173 343.6205 0002798 287.4393 308.0269 15.78740553  1302
STARLINK-4049           
1 52840U 22062L   22181.25001157 -.00751276  00000+0 -46883-2 0  9996
2 52840  53.2175 341.9566 0000894 340.5487 349.7087 15.78191153  2506
STARLINK-4065           
1 52841U 22062M   22181.25001157 -.00748977  00000+0 -46610-2 0  9999
2 52841  53.2175 341.9533 0002378 288.7966  43.3585 15.78233689  2506
STARLINK-4046           
1 52842U 22062N   22181.25001157 -.00749155  00000+0 -46785-2 0  9992
2 52842  53.2175 341.9585 0001122 299.6753  29.6367 15.78167607  2506
STARLINK-4188           
1 52843U 22062P   22181.25001157 -.00749190  00000+0 -46574-2 0  9998
2 52843  53.2175 341.9512 0002385 288.6173  44.4655 15.78257505  2505
STARLINK-4208           
1 52844U 22062Q   22180.91667824 -.00746136  00000+0 -45317-2 0  9991
2 52844  53.2173 343.6194 0003273 267.4978 328.4204 15.78752973  1305
STARLINK-4168           
1 52845U 22062R   22180.91667824 -.00749210  00000+0 -45393-2 0  9992
2 52845  53.2173 343.6153 0003624 244.9403 353.2701 15.78810348  1303
STARLINK-4212           
1 52846U 22062S   22180.91667824 -.00745596  00000+0 -45231-2 0  9997
2 52846  53.2173 343.6169 0002406 269.8488 327.4424 15.78786466  1305
STARLINK-4206           
1 52847U 22062T   22180.91667824 -.00744402  00000+0 -45052-2 0  9994
2 52847  53.2173 343.6135 0002925 278.2605 320.8657 15.78829979  1302
STARLINK-4202           
1 52848U 22062U   22180.91667824 -.00746663  00000+0 -45337-2 0  9992
2 52848  53.2173 343.6186 0002831 262.3050 334.0671 15.78764920  1300
STARLINK-4197           
1 52849U 22062V   22180.91667824 -.00745044  00000+0 -45064-2 0  9992
2 52849  53.2173 343.6117 0002207 268.0205 332.0289 15.78851906  1301
STARLINK-4187           
1 52850U 22062W   22181.25001157 -.00750661  00000+0 -46651-2 0  9997
2 52850  53.2175 341.9493 0000970 320.2404  13.7874 15.78280451  2507
STARLINK-3809           
1 52851U 22062X   22180.91667824 -.00744697  00000+0 -45020-2 0  9990
2 52851  53.2173 343.6109 0002164 275.5713 324.9376 15.78862641  1309
STARLINK-4184           
1 52852U 22062Y   22180.91667824 -.00745310  00000+0 -45104-2 0  9997
2 52852  53.2173 343.6123 0002115 270.5926 328.9894 15.78841838  1307
STARLINK-4189           
1 52853U 22062Z   22180.91667824 -.00747253  00000+0 -45104-2 0  9996
2 52853  53.2173 343.6090 0003739 252.9483 348.4648 15.78886756  1308
STARLINK-4204           
1 52854U 22062AA  22180.91667824 -.00744964  00000+0 -44996-2 0  9991
2 52854  53.2173 343.6096 0003000 267.6308 333.3261 15.78874503  1306
STARLINK-4209           
1 52855U 22062AB  22180.91667824 -.00743194  00000+0 -44789-2 0  9996
2 52855  53.2173 343.6063 0003069 287.0968 315.6814 15.78918184  1305
STARLINK-4201           
1 52856U 22062AC  22180.91667824 -.00746637  00000+0 -45045-2 0  9998
2 52856  53.2173 343.6077 0003579 256.0407 345.8275 15.78897657  1308
STARLINK-4199           
1 52857U 22062AD  22180.91667824 -.00742996  00000+0 -44739-2 0  9992
2 52857  53.2173 343.6045 0002815 293.5927 310.1121 15.78939028  1303
STARLINK-4198           
1 52858U 22062AE  22180.91667824 -.00743538  00000+0 -44842-2 0  9991
2 52858  53.2173 343.6070 0002655 289.8986 312.4202 15.78907628  1303
STARLINK-4196           
1 52859U 22062AF  22180.91667824 -.00744908  00000+0 -44830-2 0  9991
2 52859  53.2173 343.6036 0003185 264.8314 339.3204 15.78951770  1300
STARLINK-4191           
1 52860U 22062AG  22180.91667824 -.00743192  00000+0 -44776-2 0  9996
2 52860  53.2173 343.6050 0002787 292.1337 311.1234 15.78927462  1306
STARLINK-4112           
1 52861U 22062AH  22180.91667824 -.00752207  00000+0 -45131-2 0  9990
2 52861  53.2173 343.5991 0005300 236.5216   9.9037 15.79010664  2450
STARLINK-4010           
1 52862U 22062AJ  22180.91667824 -.00746443  00000+0 -44912-2 0  9992
2 52862  53.2173 343.6023 0002966 247.5241 357.0897 15.78963144  1306
STARLINK-4270           
1 52863U 22062AK  22180.91667824 -.00744206  00000+0 -44721-2 0  9996
2 52863  53.2173 343.6009 0003002 266.9528 338.5619 15.78984659  1306
STARLINK-4267           
1 52864U 22062AL  22180.91667824 -.00743415  00000+0 -44699-2 0  9992
2 52864  53.2173 343.6014 0002770 279.3370 325.7317 15.78972547  1303
STARLINK-4274           
1 52865U 22062AM  22180.91667824 -.00743392  00000+0 -44582-2 0  9998
2 52865  53.2173 343.5973 0002839 273.1617 334.1675 15.79028544  1300
STARLINK-4272           
1 52866U 22062AN  22180.91667824 -.00750362  00000+0 -45049-2 0  9993
2 52866  53.2173 343.5996 0004805 240.7239   5.2440 15.78998916  1305
STARLINK-4126           
1 52867U 22062AP  22180.91667824 -.00742893  00000+0 -44509-2 0  9994
2 52867  53.2173 343.5955 0002694 284.4664 323.7752 15.79049962  1305
STARLINK-4261           
1 52868U 22062AQ  22180.91667824 -.00745938  00000+0 -44747-2 0  9992
2 52868  53.2173 343.5978 0003766 254.3294 352.5473 15.79018678  1307
STARLINK-4266           
1 52869U 22062AR  22180.91667824 -.00743057  00000+0 -44506-2 0  9996
2 52869  53.2173 343.5946 0002275 279.4497 329.2479 15.79060832  1306
STARLINK-4195           
1 52870U 22062AS  22180.91667824 -.00743584  00000+0 -44585-2 0  9990
2 52870  53.2173 343.5960 0002249 268.6571 339.1335 15.79039106  1309
STARLINK-4207           
1 52871U 22062AT  22180.91667824 -.00744070  00000+0 -44486-2 0  9992
2 52871  53.2173 343.5920 0003094 260.3441 349.7066 15.79094743  1306
STARLINK-4213           
1 52872U 22062AU  22180.91667824 -.00743863  00000+0 -44518-2 0  9998
2 52872  53.2173 343.5933 0003126 263.4222 345.7307 15.79072017  1302
STARLINK-4211           
1 52873U 22062AV  22180.91667824 -.00742585  00000+0 -44342-2 0  9994
2 52873  53.2173 343.5902 0003409 278.2868 332.6849 15.79114697  1300
STARLINK-4210           
1 52874U 22062AW  22180.91667824 -.00743002  00000+0 -44455-2 0  9995
2 52874  53.2173 343.5924 0002404 281.4908 328.1115 15.79082948  1309
